{
    "links": {
        "self": "http://www.neowsapp.com/rest/v1/neo/3774090?api_key=iIulBulltgU6a56xZRHN4H3l9WmuAYTsLGpBGhQ2"
    },
    "id": "3774090",
    "neo_reference_id": "3774090",
    "name": "(2017 HO3)",
    "designation": "2017 HO3",
    "nasa_jpl_url": "http://ssd.jpl.nasa.gov/sbdb.cgi?sstr=3774090",
    "absolute_magnitude_h": 25.8,
    "estimated_diameter": {
        "kilometers": {
            "estimated_diameter_min": 0.0183888672,
            "estimated_diameter_max": 0.0411187571
        },
        "meters": {
            "estimated_diameter_min": 18.388867207,
            "estimated_diameter_max": 41.1187571041
        },
        "miles": {
            "estimated_diameter_min": 0.0114263088,
            "estimated_diameter_max": 0.0255500032
        },
        "feet": {
            "estimated_diameter_min": 60.3309310875,
            "estimated_diameter_max": 134.9040630575
        }
    },
    "is_potentially_hazardous_asteroid": false,
    "close_approach_data": [
        {
            "close_approach_date": "2017-04-19",
            "close_approach_date_full": "2017-Apr-19 05:57",
            "epoch_date_close_approach": 1492581420000,
            "relative_velocity": {
                "kilometers_per_second": "13.741393276",
                "kilometers_per_hour": "49469.0157935392",
                "miles_per_hour": "30738.1226190466"
            },
            "miss_distance": {
                "astronomical": "0.0122052912",
                "lunar": "4.7478582768",
                "kilometers": "1825885.566249744",
                "miles": "1134552.6809607072"
            },
            "orbiting_body": "Earth"
        }
    ],
    "orbital_data": {
        "orbit_id": "1",
        "orbit_determination_date": "2017-04-25 19:58:13",
        "first_observation_date": "2017-04-22",
        "last_observation_date": "2017-04-26",
        "data_arc_in_days": 4,
        "observations_used": 56,
        "orbit_uncertainty": "8",
        "minimum_orbit_intersection": ".0113513",
        "jupiter_tisserand_invariant": "3.495",
        "epoch_osculation": "2457866.5",
        "eccentricity": ".5999927225238747",
        "semi_major_axis": "2.092625972024008",
        "inclination": "6.161759877301618",
        "ascending_node_longitude": "202.8887180708876",
        "orbital_period": "1105.696267575093",
        "perihelion_distance": ".8370656178451539",
        "perihelion_argument": "310.0912166456654",
        "aphelion_distance": "3.348186326202863",
        "perihelion_time": "2457823.772736003647",
        "mean_anomaly": "13.91142892470914",
        "mean_motion": ".3255867009386922",
        "equinox": "J2000",
        "orbit_class": {
            "orbit_class_type": "APO",
            "orbit_class_description": "Near-Earth asteroid orbits which cross the Earth’s orbit similar to that of 1862 Apollo",
            "orbit_class_range": "a (semi-major axis) > 1.0 AU; q (perihelion) < 1.017 AU"
        }
    },
    "is_sentry_object": false
}